BEIDOU 3 (C01)          
1 36287U 10001A   21047.56905462 -.00000284  00000-0  00000-0 0  9994
2 36287   1.6974  41.1900 0002809 101.4156 349.4386  1.00272063 40650
BEIDOU 5 (C06)          
1 36828U 10036A   21047.53757270 -.00000125  00000-0  00000-0 0  9996
2 36828  54.1765 180.7174 0106983 234.1173  41.0380  1.00299142 38693
BEIDOU 6 (C04)          
1 37210U 10057A   21047.65333580 -.00000115  00000-0  00000-0 0  9991
2 37210   0.9299  52.9456 0004379 193.9356 295.2129  1.00271229 37761
BEIDOU 7 (C07)          
1 37256U 10068A   21047.47343010 -.00000196  00000-0  00000-0 0  9991
2 37256  51.0664 295.4368 0081978 216.4065 282.9465  1.00295356 37288
BEIDOU 8 (C08)          
1 37384U 11013A   21047.66338505 -.00000170  00000-0  00000-0 0  9990
2 37384  59.6106  59.1175 0054877 207.1873 238.3047  1.00287627 36156
BEIDOU 9 (C09)          
1 37763U 11038A   21046.84206023 -.00000068  00000-0  00000-0 0  9992
2 37763  54.4628 183.1490 0077656 223.7582 135.8256  1.00289927 35122
BEIDOU 10 (C10)         
1 37948U 11073A   21047.43659800 -.00000139  00000-0  00000-0 0  9996
2 37948  51.1674 295.0491 0069367 215.4321 249.1855  1.00280314 33881
BEIDOU 11 (C05)         
1 38091U 12008A   21047.55282875  .00000052  00000-0  00000-0 0  9995
2 38091   1.9990  71.7457 0003714 259.0314  73.7722  1.00276327 32956
BEIDOU 12 (C11)         
1 38250U 12018A   21047.45609059 -.00000095  00000-0  00000-0 0  9997
2 38250  56.7566   9.6068 0023874 251.4803 279.1710  1.86234230 60036
BEIDOU 13 (C12)         
1 38251U 12018B   21047.38897733 -.00000096  00000-0  00000-0 0  9999
2 38251  56.6797   8.9654 0014994 257.0217 273.0760  1.86234067 60035
BEIDOU 15 (C14)         
1 38775U 12050B   21047.35875948 -.00000018  00000-0  00000-0 0  9991
2 38775  55.1536 128.0669 0013799 317.5217  29.6814  1.86232243 57401
BEIDOU 16 (C02)         
1 38953U 12059A   21047.55813056 -.00000179  00000-0  00000-0 0  9990
2 38953   1.6806  84.9340 0009217 266.4907  80.2189  1.00274960 30529
BEIDOU 17 (C31)         
1 40549U 15019A   21047.00173469 -.00000168  00000-0  00000-0 0  9998
2 40549  52.6859 318.3937 0036364 188.7800  94.0159  1.00292337 21555
BEIDOU 18 (C57)         
1 40748U 15037A   21047.06725998 -.00000098  00000-0  00000-0 0  9997
2 40748  55.9448   8.1356 0005095 337.1196 247.3211  1.86233359 37855
BEIDOU 19 (C58)         
1 40749U 15037B   21047.41310020 -.00000097  00000-0  00000-0 0  9992
2 40749  55.9485   8.1110 0007333 309.3477 283.5894  1.86232172 37856
BEIDOU 20 (C18)         
1 40938U 15053A   21047.36767484 -.00000106  00000-0  00000-0 0  9995
2 40938  52.2477 281.4453 0046023 190.5220 262.5990  1.00263924 19846
BEIDOU IGSO-6 (C13)     
1 41434U 16021A   21046.48352047 -.00000129  00000-0  00000-0 0  9995
2 41434  57.3858  57.9257 0041131 215.7679 140.1272  1.00293609 17944
BEIDOU-2 G7 (C03)       
1 41586U 16037A   21047.56312258 -.00000358  00000-0  00000-0 0  9994
2 41586   2.0012  69.8138 0009161   0.1224  30.0587  1.00269689 17273
BEIDOU-3 M1 (C19)       
1 43001U 17069A   21047.13953317 -.00000017  00000-0  00000-0 0  9996
2 43001  55.3094 128.0109 0009603 284.3392  72.2322  1.86231683 22332
BEIDOU-3 M2 (C20)       
1 43002U 17069B   21047.23054491 -.00000017  00000-0  00000-0 0  9993
2 43002  55.3077 128.0426 0007957 307.3683 153.8366  1.86231449 22339
BEIDOU-3 M3 (C27)       
1 43107U 18003A   21047.14531326 -.00000099  00000-0  00000-0 0  9995
2 43107  55.3851   9.2679 0004324  25.2058 184.7275  1.86232455 21094
BEIDOU-3 M4 (C28)       
1 43108U 18003B   21047.07640711 -.00000099  00000-0  00000-0 0  9997
2 43108  55.3791   9.2616 0004159 260.5790 308.3381  1.86232446 21094
BEIDOU-3 M5 (C21)       
1 43207U 18018A   21047.21223308 -.00000017  00000-0  00000+0 0  9997
2 43207  55.2666 128.1376 0005885 325.2023  34.8099  1.86231654 20482
BEIDOU-3 M6 (C22)       
1 43208U 18018B   21047.27894740 -.00000017  00000-0  00000-0 0  9999
2 43208  55.2661 128.1402 0008308 294.6643  65.2998  1.86231821 20480
BEIDOU-3 M7 (C29)       
1 43245U 18029A   21047.28003351 -.00000100  00000-0  00000-0 0  9996
2 43245  55.3212   7.0597 0001664 306.2667 264.1248  1.86232558 19639
BEIDOU-3 M8 (C30)       
1 43246U 18029B   21047.27739863 -.00000100  00000-0  10000-3 0  9994
2 43246  55.3185   7.0920 0005281 335.5577 279.1584  1.86232733 19626
BEIDOU IGSO-7 (C16)     
1 43539U 18057A   21046.78591119 -.00000125  00000-0  00000-0 0  9998
2 43539  55.0559 180.0471 0031984 212.6646 148.2105  1.00250264  9637
BEIDOU-3 M9 (C23)       
1 43581U 18062A   21047.14780350  .00000033  00000-0  00000-0 0  9996
2 43581  54.4530 248.7622 0002430 319.7225  57.9033  1.86231797 17372
BEIDOU-3 M10 (C24)      
1 43582U 18062B   21047.25441319  .00000034  00000-0  00000-0 0  9999
2 43582  54.4513 248.7465 0006518  14.6583 165.6936  1.86232121 17379
BEIDOU-3 M11 (C25)      
1 43602U 18067A   21047.41515025  .00000038  00000-0  00000-0 0  9995
2 43602  54.5273 247.3130 0007539   5.6845 324.8418  1.86231506 16868
BEIDOU-3 M12 (C26)      
1 43603U 18067B   21047.55018468  .00000040  00000-0  00000-0 0  9993
2 43603  54.5227 247.2768 0004690   0.2047 331.3451  1.86231462 16887
BEIDOU-3 M13 (C32)      
1 43622U 18072A   21046.92087462 -.00000016  00000-0  00000-0 0  9994
2 43622  55.2320 127.7212 0006166 279.2834  20.6465  1.86231467 16381
BEIDOU-3 M14 (C33)      
1 43623U 18072B   21047.02695895 -.00000016  00000-0  00000-0 0  9992
2 43623  55.2328 127.7086 0004388 304.3374 156.9483  1.86231404 16397
BEIDOU-3 M15 (C34)      
1 43647U 18078A   21047.41340057 -.00000099  00000-0  10000-3 0  9999
2 43647  55.2142   7.2568 0007501 342.9691 272.6087  1.86232719 15906
BEIDOU-3 M16 (C35)      
1 43648U 18078B   21047.00683844 -.00000100  00000-0  10000-3 0  9992
2 43648  55.2113   7.2778 0005357 349.9919 261.6684  1.86232204 15916
BEIDOU-3 G1 (C59)       
1 43683U 18085A   21047.56896738 -.00000282  00000-0  00000-0 0  9995
2 43683   1.2654 240.0133 0002701  38.4986 213.0931  1.00274597  8546
BEIDOU-3 M17 (C36)      
1 43706U 18093A   21047.28282426  .00000035  00000-0  00000-0 0  9997
2 43706  54.5327 248.6061 0007726 280.3242  52.7840  1.86231758 15269
BEIDOU-3 M18 (C37)      
1 43707U 18093B   21047.14810412  .00000034  00000-0  00000-0 0  9994
2 43707  54.5332 248.6008 0007390 310.8182  22.7096  1.86232049 15260
BEIDOU-3 IGSO-1 (C38)   
1 44204U 19023A   21047.39338723 -.00000193  00000-0  00000-0 0  9995
2 44204  55.8458  58.2335 0017259 204.7471 139.6020  1.00275701  6837
BEIDOU-2 G8             
1 44231U 19027A   21047.63528014 -.00000250  00000-0  00000-0 0  9994
2 44231   0.4512 314.1320 0007277 269.1207 296.6951  1.00277231  6560
BEIDOU-3 IGSO-2 (C39)   
1 44337U 19035A   21047.46354233 -.00000115  00000-0  00000-0 0  9991
2 44337  55.0867 176.0861 0017221 186.5926  58.2716  1.00267743  6176
BEIDOU-3 M23 (C45)      
1 44542U 19061A   21047.21752771  .00000035  00000-0  10000-3 0  9994
2 44542  54.7584 248.6547 0008557 344.4670 349.0588  1.86231288  9525
BEIDOU-3 M24 (C46)      
1 44543U 19061B   21047.35063315  .00000036  00000-0  10000-3 0  9990
2 44543  54.7553 248.6214 0005639 342.7614 350.6918  1.86231686  9538
BEIDOU-3 IGSO-3         
1 44709U 19073A   21046.70234946 -.00000154  00000-0  00000-0 0  9993
2 44709  58.0289 301.4095 0018825 193.3527  10.8500  1.00261658  4922
BEIDOU-3 M21            
1 44793U 19078A   21045.22965929 -.00000106  00000-0  10000-3 0  9990
2 44793  55.0633   7.4113 0007182 349.3335 196.7500  1.86232309  8353
BEIDOU-3 M22            
1 44794U 19078B   21047.50775552 -.00000099  00000-0  10000-3 0  9996
2 44794  55.0395   7.3370 0005485 342.0938 202.0887  1.86232762  8392
BEIDOU-3 M19            
1 44864U 19090A   21047.48955287 -.00000019  00000-0  00000-0 0  9998
2 44864  55.1683 127.9375 0015807 262.4449 104.1538  1.86231738  7987
BEIDOU-3 M20            
1 44865U 19090B   21047.36001307 -.00000018  00000-0  00000-0 0  9990
2 44865  55.1682 127.9734 0014637 277.8341  91.8358  1.86231679  7961
BEIDOU-3 G2             
1 45344U 20017A   21047.55701608 -.00000143  00000-0  00000-0 0  9995
2 45344   2.5921 333.4700 0001573  43.7728  50.0300  1.00272744  3747
BEIDOU-3 G3             
1 45807U 20040A   21047.56312258 -.00000356  00000-0  00000-0 0  9991
2 45807   2.5603 298.3658 0009632  16.0825 145.4806  1.00267296  2569
